{
    "links": {
        "self": "http://www.neowsapp.com/rest/v1/neo/3837752?api_key=iIulBulltgU6a56xZRHN4H3l9WmuAYTsLGpBGhQ2"
    },
    "id": "3837752",
    "neo_reference_id": "3837752",
    "name": "(2019 AL7)",
    "designation": "2019 AL7",
    "nasa_jpl_url": "http://ssd.jpl.nasa.gov/sbdb.cgi?sstr=3837752",
    "absolute_magnitude_h": 21.5,
    "estimated_diameter": {
        "kilometers": {
            "estimated_diameter_min": 0.1332155667,
            "estimated_diameter_max": 0.2978790628
        },
        "meters": {
            "estimated_diameter_min": 133.2155666981,
            "estimated_diameter_max": 297.8790627982
        },
        "miles": {
            "estimated_diameter_min": 0.0827762899,
            "estimated_diameter_max": 0.1850934111
        },
        "feet": {
            "estimated_diameter_min": 437.0589598459,
            "estimated_diameter_max": 977.2935443908
        }
    },
    "is_potentially_hazardous_asteroid": false,
    "close_approach_data": [
        {
            "close_approach_date": "2018-12-22",
            "close_approach_date_full": "2018-Dec-22 00:44",
            "epoch_date_close_approach": 1545439440000,
            "relative_velocity": {
                "kilometers_per_second": "17.5618361352",
                "kilometers_per_hour": "63222.6100868042",
                "miles_per_hour": "39284.0712508812"
            },
            "miss_distance": {
                "astronomical": "0.1336581487",
                "lunar": "51.9930198443",
                "kilometers": "19994974.353663269",
                "miles": "12424300.9408763522"
            },
            "orbiting_body": "Earth"
        }
    ],
    "orbital_data": {
        "orbit_id": "6",
        "orbit_determination_date": "2019-02-11 07:08:58",
        "first_observation_date": "2019-01-07",
        "last_observation_date": "2019-02-01",
        "data_arc_in_days": 25,
        "observations_used": 40,
        "orbit_uncertainty": "8",
        "minimum_orbit_intersection": ".0739764",
        "jupiter_tisserand_invariant": "3.052",
        "epoch_osculation": "2458492.5",
        "eccentricity": ".6761761600944213",
        "semi_major_axis": "2.574116902782127",
        "inclination": "6.006437279354698",
        "ascending_node_longitude": "201.114340082814",
        "orbital_period": "1508.484410969805",
        "perihelion_distance": ".8335604198247636",
        "perihelion_argument": "189.7884519327767",
        "aphelion_distance": "4.31467338573949",
        "perihelion_time": "2458438.384208789352",
        "mean_anomaly": "12.91474057945915",
        "mean_motion": ".2386501294823166",
        "equinox": "J2000",
        "orbit_class": {
            "orbit_class_type": "APO",
            "orbit_class_description": "Near-Earth asteroid orbits which cross the Earth’s orbit similar to that of 1862 Apollo",
            "orbit_class_range": "a (semi-major axis) > 1.0 AU; q (perihelion) < 1.017 AU"
        }
    },
    "is_sentry_object": false
}